NORAD_CAT_ID,OBJECT_NAME,OBJECT_TYPE,EPOCH,MEAN_MOTION,ECCENTRICITY,INCLINATION,RA_OF_ASC_NODE,ARG_OF_PERICENTER,MEAN_ANOMALY,BSTAR,MEAN_MOTION_DOT,MEAN_MOTION_DDOT,TLE_LINE0,TLE_LINE1,TLE_LINE2,SEMIMAJOR_AXIS,PERIOD,APOGEE,PERIGEE,DECAYED
53026.0,STARLINK-4119,PAYLOAD,2023-09-08 21:12:33,15.08837034,0.0001762,53.216,221.8649,89.9788,270.1407,2.5904e-05,1.24e-06,0.0,0 STARLINK-4119,1 53026U 22076AS  23251.88371991  .00000124  00000-0  25904-4 0  9993,2 53026  53.2160 221.8649 0001762  89.9788 270.1407 15.08837034 65182,6917.889,95.438,540.973,538.536,0.0
53026.0,STARLINK-4119,PAYLOAD,2023-09-09 01:58:42,15.08835887,0.000149,53.2157,220.9728,108.5723,251.5431,1.4206e-05,-6.2e-07,0.0,0 STARLINK-4119,1 53026U 22076AS  23252.08243988 -.00000062  00000-0  14206-4 0  9995,2 53026  53.2157 220.9728 0001490 108.5723 251.5431 15.08835887 65680,6917.893,95.438,540.789,538.727,0.0
53026.0,STARLINK-4119,PAYLOAD,2023-09-09 06:44:52,15.08838395,0.000127,53.2166,220.0825,90.6546,269.4591,4.1797e-05,3.77e-06,0.0,0 STARLINK-4119,1 53026U 22076AS  23252.28115865  .00000377  00000-0  41797-4 0  9992,2 53026  53.2166 220.0825 0001270  90.6546 269.4591 15.08838395 65243,6917.885,95.438,540.629,538.872,0.0
53026.0,STARLINK-4119,PAYLOAD,2023-09-10 06:35:39,15.08841928,0.0001306,53.217,215.6223,93.2505,266.8636,5.131e-06,-2.06e-06,0.0,0 STARLINK-4119,1 53026U 22076AS  23253.27476065 -.00000206  00000-0  51310-5 0  9999,2 53026  53.2170 215.6223 0001306  93.2505 266.8636 15.08841928 65869,6917.874,95.437,540.643,538.836,0.0
53026.0,STARLINK-4119,PAYLOAD,2023-09-11 01:40:17,15.08835305,0.0001297,53.2174,212.0549,95.5785,264.5355,6.7179e-05,7.81e-06,0.0,0 STARLINK-4119,1 53026U 22076AS  23254.06964509  .00000781  00000-0  67179-4 0  9998,2 53026  53.2174 212.0549 0001297  95.5785 264.5355 15.08835305 65987,6917.895,95.438,540.657,538.862,0.0
53026.0,STARLINK-4119,PAYLOAD,2023-09-11 06:26:26,15.08837005,0.0001315,53.2172,211.1625,92.6729,267.4414,7.939e-05,9.76e-06,0.0,0 STARLINK-4119,1 53026U 22076AS  23254.26836446  .00000976  00000-0  79390-4 0  9992,2 53026  53.2172 211.1625 0001315  92.6729 267.4414 15.08837005 65546,6917.89,95.438,540.664,538.845,0.0
53026.0,STARLINK-4119,PAYLOAD,2023-09-11 14:23:22,15.08844859,0.0001367,53.2173,209.6757,89.6899,270.425,3.8994e-05,3.33e-06,0.0,0 STARLINK-4119,1 53026U 22076AS  23254.59956066  .00000333  00000-0  38994-4 0  9991,2 53026  53.2173 209.6757 0001367  89.6899 270.4250 15.08844859 66061,6917.866,95.437,540.676,538.785,0.0
53026.0,STARLINK-4119,PAYLOAD,2023-09-12 06:17:12,15.08848948,0.0001332,53.2167,206.7012,90.9326,269.1819,0.00012934,1.772e-05,0.0,0 STARLINK-4119,1 53026U 22076AS  23255.26195592  .00001772  00000-0  12934-3 0  9998,2 53026  53.2167 206.7012 0001332  90.9326 269.1819 15.08848948 65695,6917.853,95.437,540.639,538.797,0.0
53026.0,STARLINK-4119,PAYLOAD,2023-09-13 02:57:14,15.08842136,0.0001268,53.2178,202.8317,103.8183,256.2951,1.5889e-05,-3.5e-07,0.0,0 STARLINK-4119,1 53026U 22076AS  23256.12308298 -.00000035  00000-0  15889-4 0  9998,2 53026  53.2178 202.8317 0001268 103.8183 256.2951 15.08842136 66299,6917.874,95.437,540.616,538.862,0.0
53026.0,STARLINK-4119,PAYLOAD,2023-09-14 02:48:01,15.08843399,0.0001377,53.2169,198.3718,98.7285,261.3863,-6.2575e-05,-1.284e-05,0.0,0 STARLINK-4119,1 53026U 22076AS  23257.11668472 -.00001284  00000-0 -62575-4 0  9993,2 53026  53.2169 198.3718 0001377  98.7285 261.3863 15.08843399 65974,6917.87,95.437,540.688,538.782,0.0
53026.0,STARLINK-4119,PAYLOAD,2023-09-15 02:38:29,15.09077054,8.01e-05,53.2158,193.9125,76.7618,283.3463,0.0019913,0.00031753,0.0,0 STARLINK-4119,1 53026U 22076AS  23258.11006114  .00031753  00000-0  19913-2 0  9991,2 53026  53.2158 193.9125 0000801  76.7618 283.3463 15.09077054 66599,6917.156,95.423,539.575,538.467,0.0
53026.0,STARLINK-4119,PAYLOAD,2023-09-15 10:35:55,15.08927188,0.0004575,53.2171,192.4287,113.8264,246.3208,-0.0028675,-0.00045756,0.0,0 STARLINK-4119,1 53026U 22076AS  23258.44162030 -.00045756  00000-0 -28675-2 0  9992,2 53026  53.2171 192.4287 0004575 113.8264 246.3208 15.08927188 66642,6917.614,95.432,542.644,536.314,0.0
53026.0,STARLINK-4119,PAYLOAD,2023-09-16 02:28:50,15.09391363,9.33e-05,53.2169,189.4513,103.2271,256.8825,0.00082699,0.00013098,0.0,0 STARLINK-4119,1 53026U 22076AS  23259.10336604  .00013098  00000-0  82699-3 0  9995,2 53026  53.2169 189.4513 0000933 103.2271 256.8825 15.09391363 66745,6916.196,95.403,538.706,537.415,0.0
53026.0,STARLINK-4119,PAYLOAD,2023-09-17 19:45:55,15.10283136,0.0001284,53.2161,181.7082,96.6522,263.4617,0.0024254,0.00040097,0.0,0 STARLINK-4119,1 53026U 22076AS  23260.82355804  .00040097  00000-0  24254-2 0  9990,2 53026  53.2161 181.7082 0001284  96.6522 263.4617 15.10283136 67000,6913.473,95.346,536.226,534.45,0.0
53026.0,STARLINK-4119,PAYLOAD,2023-09-18 06:00:00,15.10452332,0.0001218,53.2151,179.7894,72.6591,87.7919,0.00011961,1.698e-05,0.0,0 STARLINK-4119,1 53026U 22076AS  23261.25001157  .00001698  00000-0  11961-3 0  9993,2 53026  53.2151 179.7894 0001218  72.6591  87.7919 15.10452332 67079,6912.957,95.336,535.664,533.98,0.0
53026.0,STARLINK-4119,PAYLOAD,2023-09-18 14:00:01,15.10435372,0.0001156,53.215,178.2876,81.7981,92.1945,0.0033608,0.00056035,0.0,0 STARLINK-4119,1 53026U 22076AS  23261.58334491  .00056035  00000-0  33608-2 0  9995,2 53026  53.2150 178.2876 0001156  81.7981  92.1945 15.10435372  5668,6913.008,95.337,535.672,534.074,0.0
53026.0,STARLINK-4119,PAYLOAD,2023-09-18 22:00:00,15.10510534,0.0001231,53.215,176.7883,84.704,102.821,-0.003053,-0.00050807,0.0,0 STARLINK-4119,1 53026U 22076AS  23261.91667824 -.00050807  00000-0 -30530-2 0  9995,2 53026  53.2150 176.7883 0001231  84.7040 102.8210 15.10510534 67174,6912.779,95.332,535.495,533.793,0.0
53026.0,STARLINK-4119,PAYLOAD,2023-09-19 06:00:00,15.1045168,0.000115,53.2145,175.289,85.1872,115.9527,0.0027076,0.00045038,0.0,0 STARLINK-4119,1 53026U 22076AS  23262.25001157  .00045038  00000-0  27076-2 0  9993,2 53026  53.2145 175.2890 0001150  85.1872 115.9527 15.10451680 67226,6912.959,95.336,535.618,534.029,0.0
53026.0,STARLINK-4119,PAYLOAD,2023-09-19 22:00:00,15.10555328,0.0001377,53.2144,172.2877,95.5184,132.7253,-0.0071015,-0.00116861,0.0,0 STARLINK-4119,1 53026U 22076AS  23262.91667824 -.00116861  00000-0 -71015-2 0  9992,2 53026  53.2144 172.2877 0001377  95.5184 132.7253 15.10555328 67327,6912.642,95.329,535.459,533.555,0.0
53026.0,STARLINK-4119,PAYLOAD,2023-09-20 14:00:01,15.10404969,0.0001589,53.2141,169.2863,92.4868,162.8742,0.0041353,0.00069085,0.0,0 STARLINK-4119,1 53026U 22076AS  23263.58334491  .00069085  00000-0  41353-2 0  9992,2 53026  53.2141 169.2863 0001589  92.4868 162.8742 15.10404969 67427,6913.101,95.339,536.065,533.868,0.0
53026.0,STARLINK-4119,PAYLOAD,2023-09-20 22:00:00,15.10469888,0.0001672,53.2141,167.7872,89.3103,179.5502,-0.0013157,-0.00022125,0.0,0 STARLINK-4119,1 53026U 22076AS  23263.91667824 -.00022125  00000-0 -13157-2 0  9995,2 53026  53.2141 167.7872 0001672  89.3103 179.5502 15.10469888  5804,6912.903,95.335,535.924,533.612,0.0
53026.0,STARLINK-4119,PAYLOAD,2023-09-21 01:34:44,15.10464882,0.0001564,53.2159,167.116,88.0225,272.0947,-0.00020271,-3.665e-05,0.0,0 STARLINK-4119,1 53026U 22076AS  23264.06578723 -.00003665  00000-0 -20271-3 0  9995,2 53026  53.2159 167.1160 0001564  88.0225 272.0947 15.10464882 67492,6912.918,95.335,535.864,533.702,0.0
53026.0,STARLINK-4119,PAYLOAD,2023-09-21 03:10:00,15.10468274,0.0001583,53.2162,166.8176,89.2562,270.8612,-0.00013513,-2.541e-05,0.0,0 STARLINK-4119,1 53026U 22076AS  23264.13195443 -.00002541  00000-0 -13513-3 0  9990,2 53026  53.2162 166.8176 0001583  89.2562 270.8612 15.10468274 67031,6912.908,95.335,535.867,533.679,0.0
53026.0,STARLINK-4119,PAYLOAD,2023-09-21 22:13:24,15.1047814,0.0001734,53.2164,163.2447,88.7152,271.404,0.00025262,3.915e-05,0.0,0 STARLINK-4119,1 53026U 22076AS  23264.92597592  .00003915  00000-0  25262-3 0  9996,2 53026  53.2164 163.2447 0001734  88.7152 271.4040 15.10478140 67150,6912.878,95.334,535.941,533.544,0.0
53026.0,STARLINK-4119,PAYLOAD,2023-09-21 23:48:41,15.10482913,0.0001661,53.2161,162.9462,93.4987,266.6195,0.00037482,5.954e-05,0.0,0 STARLINK-4119,1 53026U 22076AS  23264.99214291  .00005954  00000-0  37482-3 0  9997,2 53026  53.2161 162.9462 0001661  93.4987 266.6195 15.10482913 67631,6912.863,95.334,535.876,533.58,0.0
53026.0,STARLINK-4119,PAYLOAD,2023-09-22 22:02:38,15.10490253,0.0001746,53.2159,158.7785,88.3794,271.7399,0.00046951,7.535e-05,0.0,0 STARLINK-4119,1 53026U 22076AS  23265.91849712  .00007535  00000-0  46951-3 0  9990,2 53026  53.2159 158.7785 0001746  88.3794 271.7399 15.10490253 67305,6912.841,95.333,535.913,533.499,0.0
53026.0,STARLINK-4119,PAYLOAD,2023-09-23 02:48:28,15.10503079,0.0001614,53.2161,157.8835,96.2358,263.8819,0.00066859,0.00010863,0.0,0 STARLINK-4119,1 53026U 22076AS  23266.11699573  .00010863  00000-0  66859-3 0  9998,2 53026  53.2161 157.8835 0001614  96.2358 263.8819 15.10503079 67807,6912.802,95.332,535.782,533.551,0.0
53026.0,STARLINK-4119,PAYLOAD,2023-09-23 17:06:01,15.10480173,0.0001631,53.2159,155.2048,79.2932,280.8245,-3.3124e-05,-8.44e-06,0.0,0 STARLINK-4119,1 53026U 22076AS  23266.71251245 -.00000844  00000-0 -33124-4 0  9994,2 53026  53.2159 155.2048 0001631  79.2932 280.8245 15.10480173 67890,6912.872,95.334,535.864,533.609,0.0
53026.0,STARLINK-4119,PAYLOAD,2023-09-24 01:02:28,15.10408874,0.0001861,53.2163,153.7167,75.1109,285.009,-0.0012982,-0.000218,0.0,0 STARLINK-4119,1 53026U 22076AS  23267.04338336 -.00021800  00000-0 -12982-2 0  9990,2 53026  53.2163 153.7167 0001861  75.1109 285.0090 15.10408874 67945,6913.089,95.338,536.241,533.668,0.0
53026.0,STARLINK-4119,PAYLOAD,2023-09-24 20:06:16,15.09933681,9.4e-05,53.2163,150.1399,41.6313,318.4751,-0.0080034,-0.00129202,0.0,0 STARLINK-4119,1 53026U 22076AS  23267.83769161 -.00129202  00000-0 -80034-2 0  9999,2 53026  53.2163 150.1399 0000940  41.6313 318.4751 15.09933681 68061,6914.539,95.368,537.054,535.754,0.0
